CSS (TIANHE)            
1 48274U 21035A   24199.45234550  .00104262  00000+0  10600-2 0  9992
2 48274  41.4676 258.2939 0002056 101.7691 273.6631 15.64059976183834
